[{"OBJECT_NAME":"KKS-1 (KISEKI)","OBJECT_ID":"2009-002H","EPOCH":"2026-03-09T22:29:35.909952","MEAN_MOTION":14.82831361,"ECCENTRICITY":0.00064814,"INCLINATION":98.118,"RA_OF_ASC_NODE":349.8365,"ARG_OF_PERICENTER":249.6334,"MEAN_ANOMALY":110.4183,"EPHEMERIS_TYPE":0,"CLASSIFICATION_TYPE":"U","NORAD_CAT_ID":33499,"ELEMENT_SET_NO":999,"REV_AT_EPOCH":92148,"BSTAR":0.00028879278,"MEAN_MOTION_DOT":2.283e-5,"MEAN_MOTION_DDOT":0},{"OBJECT_NAME":"SL-8 DEB","OBJECT_ID":"1975-094E","EPOCH":"2026-03-09T21:14:15.334080","MEAN_MOTION":14.8336862,"ECCENTRICITY":0.00015463,"INCLINATION":74.0209,"RA_OF_ASC_NODE":18.446,"ARG_OF_PERICENTER":246.0971,"MEAN_ANOMALY":175.6844,"EPHEMERIS_TYPE":0,"CLASSIFICATION_TYPE":"U","NORAD_CAT_ID":14865,"ELEMENT_SET_NO":999,"REV_AT_EPOCH":73382,"BSTAR":0.00088453206,"MEAN_MOTION_DOT":7.226e-5,"MEAN_MOTION_DDOT":0}]
